[{"name":"STARLINK-30780","l1":"1 58140U 23162Y   26183.53469223  .00000790  00000+0  38220-4 0  9990","l2":"2 58140  43.0011 203.6841 0001414 275.0660  85.0030 15.27581685149872","cat":"starlink"},{"name":"STARLINK-30802","l1":"1 58150U 23166A   26182.91723696  .00001890  00000+0  72607-4 0  9992","l2":"2 58150  53.1636  48.6328 0001326 100.0816 260.0335 15.31717674150674","cat":"starlink"},{"name":"STARLINK-30834","l1":"1 58151U 23166B   26183.63995988  .00031519  00000+0  10717-2 0  9991","l2":"2 58151  53.1570  45.8190 0001276 316.6533  43.4367 15.30202599150776","cat":"starlink"},{"name":"STARLINK-30833","l1":"1 58152U 23166C   26183.33210662 -.00002880  00000+0 -81125-4 0  9992","l2":"2 58152  53.1601  46.9548 0001350  92.3701 267.7455 15.31680158150736","cat":"starlink"},{"name":"STARLINK-30831","l1":"1 58153U 23166D   26183.58377215 -.00002538  00000+0 -70074-4 0  9999","l2":"2 58153  53.1596  45.6955 0001250  79.8907 280.2235 15.31688086150773","cat":"starlink"},{"name":"STARLINK-30797","l1":"1 58154U 23166E   26183.64311910  .00002994  00000+0  11316-3 0  9994","l2":"2 58154  53.1597  45.8332 0001970  77.2591 282.8630 15.30211913150627","cat":"starlink"},{"name":"STARLINK-30804","l1":"1 58155U 23166F   26183.31341036  .00000197  00000+0  18098-4 0  9999","l2":"2 58155  53.1587  46.8465 0000782  32.7380 327.3670 15.31715097150731","cat":"starlink"},{"name":"STARLINK-30784","l1":"1 58156U 23166G   26183.63684216 -.00003630  00000+0 -11055-3 0  9997","l2":"2 58156  53.1597  46.0085 0001052  77.8424 282.2694 15.30182633150629","cat":"starlink"},{"name":"STARLINK-30803","l1":"1 58157U 23166H   26183.61167101 -.00000369  00000+0 -11176-6 0  9998","l2":"2 58157  53.1575  45.1400 0001767  85.8191 274.3012 15.31698238150631","cat":"starlink"},{"name":"STARLINK-30829","l1":"1 58158U 23166J   26183.64433870 -.00008550  00000+0 -26381-3 0  9992","l2":"2 58158  53.1600  45.3565 0000966  88.8084 271.3028 15.31732071150783","cat":"starlink"},{"name":"STARLINK-30788","l1":"1 58159U 23166K   26182.91257438  .00005048  00000+0  17419-3 0  9995","l2":"2 58159  53.1587  48.6155 0001163  90.8421 269.2714 15.31724858150521","cat":"starlink"},{"name":"STARLINK-30779","l1":"1 58160U 23166L   26183.62567507 -.00001097  00000+0 -23607-4 0  9996","l2":"2 58160  53.1612  45.2426 0001019  74.0361 286.0753 15.31694032150781","cat":"starlink"},{"name":"STARLINK-30773","l1":"1 58161U 23166M   26183.60412157  .00004585  00000+0  16693-3 0  9994","l2":"2 58161  53.1626  45.7977 0000861 102.7857 257.3240 15.30178149150772","cat":"starlink"},{"name":"STARLINK-30816","l1":"1 58162U 23166N   26183.60095249 -.00000821  00000+0 -15577-4 0  9996","l2":"2 58162  53.1609  45.8001 0001862  82.4907 277.6305 15.30191208150773","cat":"starlink"},{"name":"STARLINK-30763","l1":"1 58163U 23166P   26183.60781668 -.00001101  00000+0 -25076-4 0  9991","l2":"2 58163  53.1596  33.2546 0001307  98.6654 261.4495 15.30177347150944","cat":"starlink"},{"name":"STARLINK-30815","l1":"1 58164U 23166Q   26183.61634147 -.00000466  00000+0 -32653-5 0  9995","l2":"2 58164  53.1607  45.1899 0001121  79.6853 280.4274 15.31697853150783","cat":"starlink"},{"name":"STARLINK-30814","l1":"1 58165U 23166R   26183.64620704 -.00016111  00000+0 -53293-3 0  9998","l2":"2 58165  53.1582  45.3735 0001916  86.2326 273.8893 15.30201955150784","cat":"starlink"},{"name":"STARLINK-30789","l1":"1 58166U 23166S   26183.60729780 -.00002929  00000+0 -86872-4 0  9991","l2":"2 58166  53.1606  45.8396 0001447  83.9677 276.1489 15.30174668150778","cat":"starlink"},{"name":"STARLINK-30811","l1":"1 58167U 23166T   26183.58833860 -.00001938  00000+0 -50691-4 0  9993","l2":"2 58167  53.1598  45.0155 0000909 100.6099 259.5005 15.31701965150632","cat":"starlink"},{"name":"STARLINK-30812","l1":"1 58168U 23166U   26183.32278919 -.00000875  00000+0 -17424-4 0  9990","l2":"2 58168  53.1594  46.9085 0000546  79.3887 280.7175 15.30218568150584","cat":"starlink"},{"name":"STARLINK-30771","l1":"1 58169U 23166V   26183.72842925 -.00003109  00000+0 -92963-4 0  9993","l2":"2 58169  53.1602  45.1719 0001240  90.0280 270.0863 15.30175885150792","cat":"starlink"},{"name":"STARLINK-30764","l1":"1 58170U 23166W   26183.65994917 -.00002678  00000+0 -78384-4 0  9997","l2":"2 58170  53.1612  45.4574 0001095  92.6392 267.4734 15.30176626150787","cat":"starlink"},{"name":"STARLINK-30752","l1":"1 58171U 23166X   26182.93829314  .00005132  00000+0  18519-3 0  9995","l2":"2 58171  53.1592  48.7647 0001175 102.0198 258.0935 15.30214796150679","cat":"starlink"},{"name":"STARLINK-30753","l1":"1 58175U 23167A   26183.57185428  .00000981  00000+0  45174-4 0  9997","l2":"2 58175  43.0000 214.7184 0001118 272.2413  87.8310 15.27581566148550","cat":"starlink"},{"name":"STARLINK-30824","l1":"1 58176U 23167B   26183.77187093 -.00000429  00000+0 -60725-5 0  9999","l2":"2 58176  43.0002 213.6367 0000995 274.5088  85.5650 15.27573942148583","cat":"starlink"},{"name":"YAOGAN-39 04A","l1":"1 58141U 23163A   26183.63900899  .00008327  00000+0  34726-3 0  9992","l2":"2 58141  35.0002 247.5636 0005136 154.2549 205.8422 15.22945820149936","cat":"classified"},{"name":"YAOGAN-39 04B","l1":"1 58143U 23163C   26183.71673962  .00006254  00000+0  30284-3 0  9993","l2":"2 58143  34.9938 271.9470 0003045  27.5956 332.4918 15.17896503149677","cat":"classified"},{"name":"YAOGAN-39 04C","l1":"1 58145U 23163E   26183.71260883  .00005863  00000+0  28358-3 0  9993","l2":"2 58145  34.9908 271.7607 0006893 180.8010 179.2693 15.17935138149680","cat":"classified"},{"name":"COSMOS 2570","l1":"1 58148U 23165A   26183.79854519 -.00000026  00000+0  35422-4 0  9999","l2":"2 58148  67.1487 251.4873 0007026 275.0030  85.0253 13.96672858136810","cat":"other"},{"name":"COSMOS 2571","l1":"1 58172U 23165C   26183.76072657  .00000011  00000+0  61361-4 0  9992","l2":"2 58172  67.1499 249.4821 0018406 304.6666  55.2683 13.97335040136533","cat":"other"}]