OBJECT_NAME,OBJECT_ID,EPOCH,MEAN_MOTION,ECCENTRICITY,INCLINATION,RA_OF_ASC_NODE,ARG_OF_PERICENTER,MEAN_ANOMALY,EPHEMERIS_TYPE,CLASSIFICATION_TYPE,NORAD_CAT_ID,ELEMENT_SET_NO,REV_AT_EPOCH,BSTAR,MEAN_MOTION_DOT,MEAN_MOTION_DDOT
STARLINK-30780,2023-162Y,2026-07-02T12:49:57.408672,15.27581685,.0001414,43.0011,203.6841,275.0660,85.0030,0,U,58140,999,14987,.3822E-4,.79E-5,0
YAOGAN-39 04A,2023-163A,2026-07-02T15:20:10.376736,15.22945820,.0005136,35.0002,247.5636,154.2549,205.8422,0,U,58141,999,14993,.34726E-3,.8327E-4,0
YAOGAN-39 04B,2023-163C,2026-07-02T17:12:06.303168,15.17896503,.0003045,34.9938,271.9470,27.5956,332.4918,0,U,58143,999,14967,.30284E-3,.6254E-4,0
YAOGAN-39 04C,2023-163E,2026-07-02T17:06:09.402912,15.17935138,.0006893,34.9908,271.7607,180.8010,179.2693,0,U,58145,999,14968,.28358E-3,.5863E-4,0
COSMOS 2570,2023-165A,2026-07-02T19:09:54.304416,13.96672858,.0007026,67.1487,251.4873,275.0030,85.0253,0,U,58148,999,13681,.35422E-4,-.26E-6,0
STARLINK-30802,2023-166A,2026-07-01T22:00:49.273344,15.31717674,.00013263,53.1636,48.6328,100.0816,260.0335,0,U,58150,999,15067,.72606968E-4,.189E-4,0
STARLINK-30834,2023-166B,2026-07-02T15:21:32.533632,15.30202599,.0001276,53.1570,45.8190,316.6533,43.4367,0,U,58151,999,15077,.10717E-2,.31519E-3,0
STARLINK-30833,2023-166C,2026-07-02T07:58:14.011968,15.31680158,.000135,53.1601,46.9548,92.3701,267.7455,0,U,58152,999,15073,-.81125E-4,-.288E-4,0
STARLINK-30831,2023-166D,2026-07-02T14:00:37.913760,15.31688086,.000125,53.1596,45.6955,79.8907,280.2235,0,U,58153,999,15077,-.70074E-4,-.2538E-4,0
STARLINK-30797,2023-166E,2026-07-02T15:26:05.490240,15.30211913,.000197,53.1597,45.8332,77.2591,282.8630,0,U,58154,999,15062,.11316E-3,.2994E-4,0
STARLINK-30804,2023-166F,2026-07-02T07:31:18.655104,15.31715097,.0000782,53.1587,46.8465,32.7380,327.3670,0,U,58155,999,15073,.18098E-4,.197E-5,0
STARLINK-30784,2023-166G,2026-07-02T15:17:03.162624,15.30182633,.0001052,53.1597,46.0085,77.8424,282.2694,0,U,58156,999,15062,-.11055E-3,-.363E-4,0
STARLINK-30803,2023-166H,2026-07-02T14:40:48.375264,15.31698238,.0001767,53.1575,45.1400,85.8191,274.3012,0,U,58157,999,15063,-.11176E-6,-.369E-5,0
STARLINK-30829,2023-166J,2026-07-02T15:27:50.863680,15.31732071,.0000966,53.1600,45.3565,88.8084,271.3028,0,U,58158,999,15078,-.26381E-3,-.855E-4,0
STARLINK-30788,2023-166K,2026-07-01T21:54:06.426432,15.31724858,.00011637,53.1587,48.6155,90.8421,269.2714,0,U,58159,999,15052,.17419353E-3,.5048E-4,0
STARLINK-30779,2023-166L,2026-07-02T15:00:58.326048,15.31694032,.0001019,53.1612,45.2426,74.0361,286.0753,0,U,58160,999,15078,-.23607E-4,-.1097E-4,0
STARLINK-30773,2023-166M,2026-07-02T14:29:56.103648,15.30178149,.0000861,53.1626,45.7977,102.7857,257.3240,0,U,58161,999,15077,.16693E-3,.4585E-4,0
STARLINK-30816,2023-166N,2026-07-02T14:25:22.295136,15.30191208,.0001862,53.1609,45.8001,82.4907,277.6305,0,U,58162,999,15077,-.15577E-4,-.821E-5,0
STARLINK-30763,2023-166P,2026-07-02T14:35:15.361152,15.30177347,.0001307,53.1596,33.2546,98.6654,261.4495,0,U,58163,999,15094,-.25076E-4,-.1101E-4,0
STARLINK-30815,2023-166Q,2026-07-02T14:47:31.903008,15.31697853,.0001121,53.1607,45.1899,79.6853,280.4274,0,U,58164,999,15078,-.32653E-5,-.466E-5,0
STARLINK-30814,2023-166R,2026-07-02T15:30:32.288256,15.30201955,.0001916,53.1582,45.3735,86.2326,273.8893,0,U,58165,999,15078,-.53293E-3,-.16111E-3,0
STARLINK-30789,2023-166S,2026-07-02T14:34:30.529920,15.30174668,.0001447,53.1606,45.8396,83.9677,276.1489,0,U,58166,999,15077,-.86872E-4,-.2929E-4,0
STARLINK-30811,2023-166T,2026-07-02T14:07:12.455040,15.31701965,.0000909,53.1598,45.0155,100.6099,259.5005,0,U,58167,999,15063,-.50691E-4,-.1938E-4,0
STARLINK-30812,2023-166U,2026-07-02T07:44:48.986016,15.30218568,.0000546,53.1594,46.9085,79.3887,280.7175,0,U,58168,999,15058,-.17424E-4,-.875E-5,0
STARLINK-30771,2023-166V,2026-07-02T17:28:56.287200,15.30175885,.000124,53.1602,45.1719,90.0280,270.0863,0,U,58169,999,15079,-.92963E-4,-.3109E-4,0
STARLINK-30764,2023-166W,2026-07-02T15:50:19.608288,15.30176626,.0001095,53.1612,45.4574,92.6392,267.4734,0,U,58170,999,15078,-.78384E-4,-.2678E-4,0
STARLINK-30752,2023-166X,2026-07-01T22:31:08.527296,15.30214796,.00011754,53.1592,48.7647,102.0198,258.0935,0,U,58171,999,15067,.18518898E-3,.5132E-4,0
COSMOS 2571,2023-165C,2026-07-02T18:15:26.775648,13.97335040,.0018406,67.1499,249.4821,304.6666,55.2683,0,U,58172,999,13653,.61361E-4,.11E-6,0
STARLINK-30753,2023-167A,2026-07-02T13:43:28.209792,15.27581566,.0001118,43.0000,214.7184,272.2413,87.8310,0,U,58175,999,14855,.45174E-4,.981E-5,0
STARLINK-30824,2023-167B,2026-07-02T18:31:29.648352,15.27573942,.0000995,43.0002,213.6367,274.5088,85.5650,0,U,58176,999,14858,-.60725E-5,-.429E-5,0
